[{"OBJECT_NAME":"ONEWEB-0637","OBJECT_ID":"2023-043AJ","EPOCH":"2026-01-05T06:59:13.779744","MEAN_MOTION":13.15550835,"ECCENTRICITY":0.0001801,"INCLINATION":87.9007,"RA_OF_ASC_NODE":291.7302,"ARG_OF_PERICENTER":82.7411,"MEAN_ANOMALY":277.3924,"EPHEMERIS_TYPE":0,"CLASSIFICATION_TYPE":"U","NORAD_CAT_ID":56078,"ELEMENT_SET_NO":999,"REV_AT_EPOCH":13501,"BSTAR":-0.00026814,"MEAN_MOTION_DOT":-8.8e-7,"MEAN_MOTION_DDOT":0},{"OBJECT_NAME":"ONEWEB-0647","OBJECT_ID":"2023-043AK","EPOCH":"2026-01-05T06:52:24.535776","MEAN_MOTION":13.15547718,"ECCENTRICITY":0.0001778,"INCLINATION":87.9005,"RA_OF_ASC_NODE":291.7446,"ARG_OF_PERICENTER":70.4087,"MEAN_ANOMALY":289.7235,"EPHEMERIS_TYPE":0,"CLASSIFICATION_TYPE":"U","NORAD_CAT_ID":56079,"ELEMENT_SET_NO":999,"REV_AT_EPOCH":13500,"BSTAR":-1.1763e-5,"MEAN_MOTION_DOT":8.0e-8,"MEAN_MOTION_DDOT":0},{"OBJECT_NAME":"ONEWEB-0651","OBJECT_ID":"2023-043AL","EPOCH":"2026-01-05T08:35:05.527104","MEAN_MOTION":13.15547601,"ECCENTRICITY":0.00019479,"INCLINATION":87.9013,"RA_OF_ASC_NODE":291.7234,"ARG_OF_PERICENTER":78.7074,"MEAN_ANOMALY":281.4275,"EPHEMERIS_TYPE":0,"CLASSIFICATION_TYPE":"U","NORAD_CAT_ID":56080,"ELEMENT_SET_NO":999,"REV_AT_EPOCH":13621,"BSTAR":-0.00038311975,"MEAN_MOTION_DOT":-1.31e-6,"MEAN_MOTION_DDOT":0},{"OBJECT_NAME":"ONEWEB-0718","OBJECT_ID":"2023-043AM","EPOCH":"2026-01-05T08:28:12.720864","MEAN_MOTION":13.15550705,"ECCENTRICITY":0.0001177,"INCLINATION":87.901,"RA_OF_ASC_NODE":291.7048,"ARG_OF_PERICENTER":86.319,"MEAN_ANOMALY":273.8075,"EPHEMERIS_TYPE":0,"CLASSIFICATION_TYPE":"U","NORAD_CAT_ID":56081,"ELEMENT_SET_NO":999,"REV_AT_EPOCH":13502,"BSTAR":5.0638567e-5,"MEAN_MOTION_DOT":3.2e-7,"MEAN_MOTION_DDOT":0},{"OBJECT_NAME":"ONEWEB-0561","OBJECT_ID":"2023-068A","EPOCH":"2026-01-05T13:09:03.277440","MEAN_MOTION":13.20771828,"ECCENTRICITY":0.00021461,"INCLINATION":87.9218,"RA_OF_ASC_NODE":306.8897,"ARG_OF_PERICENTER":71.8276,"MEAN_ANOMALY":288.3091,"EPHEMERIS_TYPE":0,"CLASSIFICATION_TYPE":"U","NORAD_CAT_ID":56710,"ELEMENT_SET_NO":999,"REV_AT_EPOCH":12803,"BSTAR":8.8300331e-5,"MEAN_MOTION_DOT":4.9e-7,"MEAN_MOTION_DDOT":0},{"OBJECT_NAME":"ONEWEB-0668","OBJECT_ID":"2023-068B","EPOCH":"2026-01-05T15:26:32.553312","MEAN_MOTION":13.16594508,"ECCENTRICITY":0.00014039,"INCLINATION":87.9054,"RA_OF_ASC_NODE":261.1229,"ARG_OF_PERICENTER":96.0703,"MEAN_ANOMALY":264.0588,"EPHEMERIS_TYPE":0,"CLASSIFICATION_TYPE":"U","NORAD_CAT_ID":56711,"ELEMENT_SET_NO":999,"REV_AT_EPOCH":13039,"BSTAR":2.0784207e-5,"MEAN_MOTION_DOT":2.1e-7,"MEAN_MOTION_DDOT":0},{"OBJECT_NAME":"ONEWEB-0676","OBJECT_ID":"2023-068C","EPOCH":"2026-01-05T15:37:55.017408","MEAN_MOTION":13.16598099,"ECCENTRICITY":0.0001836,"INCLINATION":87.9039,"RA_OF_ASC_NODE":261.1411,"ARG_OF_PERICENTER":75.9564,"MEAN_ANOMALY":284.1771,"EPHEMERIS_TYPE":0,"CLASSIFICATION_TYPE":"U","NORAD_CAT_ID":56712,"ELEMENT_SET_NO":999,"REV_AT_EPOCH":13031,"BSTAR":5.8328924e-5,"MEAN_MOTION_DOT":3.5e-7,"MEAN_MOTION_DDOT":0},{"OBJECT_NAME":"ONEWEB-0677","OBJECT_ID":"2023-068D","EPOCH":"2026-01-05T09:14:57.270912","MEAN_MOTION":13.20771651,"ECCENTRICITY":0.00018997,"INCLINATION":87.923,"RA_OF_ASC_NODE":306.9075,"ARG_OF_PERICENTER":82.2992,"MEAN_ANOMALY":277.8357,"EPHEMERIS_TYPE":0,"CLASSIFICATION_TYPE":"U","NORAD_CAT_ID":56713,"ELEMENT_SET_NO":999,"REV_AT_EPOCH":12831,"BSTAR":5.1145028e-5,"MEAN_MOTION_DOT":3.4e-7,"MEAN_MOTION_DDOT":0},{"OBJECT_NAME":"ONEWEB-0678","OBJECT_ID":"2023-068E","EPOCH":"2026-01-05T13:11:10.570560","MEAN_MOTION":13.15548357,"ECCENTRICITY":0.00017281,"INCLINATION":87.9014,"RA_OF_ASC_NODE":291.6433,"ARG_OF_PERICENTER":63.3376,"MEAN_ANOMALY":296.7931,"EPHEMERIS_TYPE":0,"CLASSIFICATION_TYPE":"U","NORAD_CAT_ID":56714,"ELEMENT_SET_NO":999,"REV_AT_EPOCH":12790,"BSTAR":0.00014391592,"MEAN_MOTION_DOT":6.7e-7,"MEAN_MOTION_DDOT":0},{"OBJECT_NAME":"ONEWEB-0679","OBJECT_ID":"2023-068F","EPOCH":"2026-01-05T14:38:40.028064","MEAN_MOTION":13.16593275,"ECCENTRICITY":0.0001801,"INCLINATION":87.904,"RA_OF_ASC_NODE":261.1313,"ARG_OF_PERICENTER":93.9712,"MEAN_ANOMALY":266.1624,"EPHEMERIS_TYPE":0,"CLASSIFICATION_TYPE":"U","NORAD_CAT_ID":56715,"ELEMENT_SET_NO":999,"REV_AT_EPOCH":13033,"BSTAR":9.4133199e-5,"MEAN_MOTION_DOT":4.9e-7,"MEAN_MOTION_DDOT":0},{"OBJECT_NAME":"ONEWEB-0680","OBJECT_ID":"2023-068G","EPOCH":"2026-01-05T15:39:08.771040","MEAN_MOTION":13.2182469,"ECCENTRICITY":0.0001617,"INCLINATION":87.9228,"RA_OF_ASC_NODE":276.3821,"ARG_OF_PERICENTER":96.3657,"MEAN_ANOMALY":263.7661,"EPHEMERIS_TYPE":0,"CLASSIFICATION_TYPE":"U","NORAD_CAT_ID":56716,"ELEMENT_SET_NO":999,"REV_AT_EPOCH":12962,"BSTAR":-0.00015699976,"MEAN_MOTION_DOT":-5.2e-7,"MEAN_MOTION_DDOT":0},{"OBJECT_NAME":"ONEWEB-0681","OBJECT_ID":"2023-068H","EPOCH":"2026-01-05T06:04:30.844128","MEAN_MOTION":13.21827472,"ECCENTRICITY":0.0002648,"INCLINATION":87.9223,"RA_OF_ASC_NODE":276.475,"ARG_OF_PERICENTER":75.3701,"MEAN_ANOMALY":284.7727,"EPHEMERIS_TYPE":0,"CLASSIFICATION_TYPE":"U","NORAD_CAT_ID":56717,"ELEMENT_SET_NO":999,"REV_AT_EPOCH":12956,"BSTAR":0.00026868,"MEAN_MOTION_DOT":1.24e-6,"MEAN_MOTION_DDOT":0},{"OBJECT_NAME":"ONEWEB-0682","OBJECT_ID":"2023-068J","EPOCH":"2026-01-05T08:20:15.177696","MEAN_MOTION":13.15549175,"ECCENTRICITY":0.00017283,"INCLINATION":87.9007,"RA_OF_ASC_NODE":291.6956,"ARG_OF_PERICENTER":92.4065,"MEAN_ANOMALY":267.7264,"EPHEMERIS_TYPE":0,"CLASSIFICATION_TYPE":"U","NORAD_CAT_ID":56718,"ELEMENT_SET_NO":999,"REV_AT_EPOCH":12804,"BSTAR":-0.0004431283,"MEAN_MOTION_DOT":-1.54e-6,"MEAN_MOTION_DDOT":0},{"OBJECT_NAME":"ONEWEB-0683","OBJECT_ID":"2023-068K","EPOCH":"2026-01-05T07:01:32.005056","MEAN_MOTION":13.15547917,"ECCENTRICITY":0.0001542,"INCLINATION":87.9018,"RA_OF_ASC_NODE":291.6933,"ARG_OF_PERICENTER":82.3202,"MEAN_ANOMALY":277.8104,"EPHEMERIS_TYPE":0,"CLASSIFICATION_TYPE":"U","NORAD_CAT_ID":56719,"ELEMENT_SET_NO":999,"REV_AT_EPOCH":12800,"BSTAR":0.00024786,"MEAN_MOTION_DOT":1.06e-6,"MEAN_MOTION_DDOT":0},{"OBJECT_NAME":"ONEWEB-0684","OBJECT_ID":"2023-068L","EPOCH":"2026-01-05T07:12:55.416960","MEAN_MOTION":13.15549345,"ECCENTRICITY":0.0001493,"INCLINATION":87.9018,"RA_OF_ASC_NODE":291.6856,"ARG_OF_PERICENTER":22.44,"MEAN_ANOMALY":337.6795,"EPHEMERIS_TYPE":0,"CLASSIFICATION_TYPE":"U","NORAD_CAT_ID":56720,"ELEMENT_SET_NO":999,"REV_AT_EPOCH":12783,"BSTAR":0.00017613,"MEAN_MOTION_DOT":7.9e-7,"MEAN_MOTION_DDOT":0},{"OBJECT_NAME":"ONEWEB-0686","OBJECT_ID":"2023-068M","EPOCH":"2026-01-03T16:19:09.026112","MEAN_MOTION":13.15706146,"ECCENTRICITY":0.00011303,"INCLINATION":87.9031,"RA_OF_ASC_NODE":261.5678,"ARG_OF_PERICENTER":74.7721,"MEAN_ANOMALY":285.3534,"EPHEMERIS_TYPE":0,"CLASSIFICATION_TYPE":"U","NORAD_CAT_ID":56721,"ELEMENT_SET_NO":999,"REV_AT_EPOCH":13006,"BSTAR":-0.00010755893,"MEAN_MOTION_DOT":-2.8e-7,"MEAN_MOTION_DDOT":0},{"OBJECT_NAME":"ONEWEB-0694","OBJECT_ID":"2023-068N","EPOCH":"2026-01-05T15:40:13.550304","MEAN_MOTION":13.16595212,"ECCENTRICITY":0.00014079,"INCLINATION":87.9051,"RA_OF_ASC_NODE":261.1043,"ARG_OF_PERICENTER":93.2859,"MEAN_ANOMALY":266.8433,"EPHEMERIS_TYPE":0,"CLASSIFICATION_TYPE":"U","NORAD_CAT_ID":56722,"ELEMENT_SET_NO":999,"REV_AT_EPOCH":13038,"BSTAR":-5.935e-7,"MEAN_MOTION_DOT":1.3e-7,"MEAN_MOTION_DDOT":0}]
