ONEWEB-0637             
1 56078U 23043AJ  26005.29113171 -.00000088  00000+0 -26814-3 0  9997
2 56078  87.9007 291.7302 0001801  82.7411 277.3924 13.15550835135016
ONEWEB-0647             
1 56079U 23043AK  26005.28639509  .00000008  00000+0 -11763-4 0  9994
2 56079  87.9005 291.7446 0001778  70.4087 289.7235 13.15547718135007
ONEWEB-0651             
1 56080U 23043AL  26005.35770286 -.00000131  00000+0 -38312-3 0  9998
2 56080  87.9013 291.7234 0001947  78.7074 281.4275 13.15547601136216
ONEWEB-0718             
1 56081U 23043AM  26005.35292501  .00000032  00000+0  50639-4 0  9993
2 56081  87.9010 291.7048 0001177  86.3190 273.8075 13.15550705135026
ONEWEB-0561             
1 56710U 23068A   26005.54795460  .00000049  00000+0  88300-4 0  9996
2 56710  87.9218 306.8897 0002146  71.8276 288.3091 13.20771828128035
ONEWEB-0668             
1 56711U 23068B   26005.64343233  .00000021  00000+0  20784-4 0  9997
2 56711  87.9054 261.1229 0001403  96.0703 264.0588 13.16594508130392
ONEWEB-0676             
1 56712U 23068C   26005.65133122  .00000035  00000+0  58329-4 0  9994
2 56712  87.9039 261.1411 0001836  75.9564 284.1771 13.16598099130318
ONEWEB-0677             
1 56713U 23068D   26005.38538508  .00000034  00000+0  51145-4 0  9990
2 56713  87.9230 306.9075 0001899  82.2992 277.8357 13.20771651128319
ONEWEB-0678             
1 56714U 23068E   26005.54942790  .00000067  00000+0  14392-3 0  9999
2 56714  87.9014 291.6433 0001728  63.3376 296.7931 13.15548357127906
ONEWEB-0679             
1 56715U 23068F   26005.61018551  .00000049  00000+0  94133-4 0  9999
2 56715  87.9040 261.1313 0001801  93.9712 266.1624 13.16593275130331
ONEWEB-0680             
1 56716U 23068G   26005.65218485 -.00000052  00000+0 -15700-3 0  9990
2 56716  87.9228 276.3821 0001617  96.3657 263.7661 13.21824690129620
ONEWEB-0681             
1 56717U 23068H   26005.25313477  .00000124  00000+0  26868-3 0  9999
2 56717  87.9223 276.4750 0002648  75.3701 284.7727 13.21827472129560
ONEWEB-0682             
1 56718U 23068J   26005.34739789 -.00000154  00000+0 -44313-3 0  9998
2 56718  87.9007 291.6956 0001728  92.4065 267.7264 13.15549175128042
ONEWEB-0683             
1 56719U 23068K   26005.29273154  .00000106  00000+0  24786-3 0  9999
2 56719  87.9018 291.6933 0001542  82.3202 277.8104 13.15547917128008
ONEWEB-0684             
1 56720U 23068L   26005.30064140  .00000079  00000+0  17613-3 0  9996
2 56720  87.9018 291.6856 0001493  22.4400 337.6795 13.15549345127832
ONEWEB-0686             
1 56721U 23068M   26003.67996558 -.00000028  00000+0 -10756-3 0  9999
2 56721  87.9031 261.5678 0001130  74.7721 285.3534 13.15706146130063
ONEWEB-0694             
1 56722U 23068N   26005.65293461  .00000013  00000+0 -59350-6 0  9992
2 56722  87.9051 261.1043 0001407  93.2859 266.8433 13.16595212130381
